NORAD_CAT_ID,OBJECT_NAME,OBJECT_TYPE,EPOCH,MEAN_MOTION,ECCENTRICITY,INCLINATION,RA_OF_ASC_NODE,ARG_OF_PERICENTER,MEAN_ANOMALY,BSTAR,MEAN_MOTION_DOT,MEAN_MOTION_DDOT,TLE_LINE0,TLE_LINE1,TLE_LINE2,SEMIMAJOR_AXIS,PERIOD,APOGEE,PERIGEE,DECAYED
53617.0,STARLINK-4601,PAYLOAD,2022-12-11 12:14:33,15.08842097,0.0001077,53.2173,150.1365,30.9961,329.1095,-4.1119e-05,-9.42e-06,0.0,0 STARLINK-4601,1 53617U 22104AF  22345.51011334 -.00000942  00000-0 -41119-4 0  9992,2 53617  53.2173 150.1365 0001077  30.9961 329.1095 15.08842097 16863,6917.874,95.437,540.484,538.994,0.0
53617.0,STARLINK-4601,PAYLOAD,2022-12-11 20:11:29,15.08833039,0.0001382,53.2173,148.6494,51.8222,308.2894,0.00018409,2.643e-05,0.0,0 STARLINK-4601,1 53617U 22104AF  22345.84131541  .00002643  00000-0  18409-3 0  9994,2 53617  53.2173 148.6494 0001382  51.8222 308.2894 15.08833039 16343,6917.901999999999,95.438,540.7230000000002,538.811,0.0
53617.0,STARLINK-4601,PAYLOAD,2022-12-12 10:29:57,15.08849404,0.0001291999999999,53.2174,145.97299999999996,46.8264,313.2836,0.00010044,1.311e-05,0.0,0 STARLINK-4601,1 53617U 22104AF  22346.43747191  .00001311  00000-0  10044-3 0  9992,2 53617  53.2174 145.9730 0001292  46.8264 313.2836 15.08849404 16432,6917.852,95.437,540.61,538.823,0.0
53617.0,STARLINK-4601,PAYLOAD,2022-12-12 12:05:20,15.08850658,0.0001264999999999,53.2172,145.6758,47.2677,312.8422,0.00010968,1.459e-05,0.0,0 STARLINK-4601,1 53617U 22104AF  22346.50371007  .00001459  00000-0  10968-3 0  9997,2 53617  53.2172 145.6758 0001265  47.2677 312.8422 15.08850658 17014,6917.848000000001,95.437,540.5880000000002,538.8380000000002,0.0
53617.0,STARLINK-4601,PAYLOAD,2022-12-13 10:20:44,15.08849642,0.0001366,53.2171,141.5126,53.3848,306.7269,3.6114e-05,2.87e-06,0.0,0 STARLINK-4601,1 53617U 22104AF  22347.43106560  .00000287  00000-0  36114-4 0  9990,2 53617  53.2171 141.5126 0001366  53.3848 306.7269 15.08849642 17154,6917.851,95.437,540.661,538.771,0.0
53617.0,STARLINK-4601,PAYLOAD,2022-12-13 16:42:16,15.08852092,0.0001345,53.2171,140.3232,53.4546,306.657,2.184e-05,6e-07,0.0,0 STARLINK-4601,1 53617U 22104AF  22347.69602219  .00000060  00000-0  21840-4 0  9999,2 53617  53.2171 140.3232 0001345  53.4546 306.6570 15.08852092 16620,6917.843000000003,95.437,540.639,538.778,0.0
53617.0,STARLINK-4601,PAYLOAD,2022-12-14 10:11:30,15.0885167,0.0001328,53.2148,137.0503,61.0782,299.0343,-4.9864e-05,-1.082e-05,0.0,0 STARLINK-4601,1 53617U 22104AF  22348.42465853 -.00001082  00000-0 -49864-4 0  9995,2 53617  53.2148 137.0503 0001328  61.0782 299.0343 15.08851670 17306,6917.845,95.437,540.628,538.7909999999998,0.0
53617.0,STARLINK-4601,PAYLOAD,2022-12-14 18:08:26,15.08839728,0.0001966,53.2161,135.569,46.0032,314.1122,-3.9299e-05,-9.14e-06,0.0,0 STARLINK-4601,1 53617U 22104AF  22348.75586535 -.00000914  00000-0 -39299-4 0  9996,2 53617  53.2161 135.5690 0001966  46.0032 314.1122 15.08839728 16785,6917.880999999999,95.438,541.106,538.386,0.0
53617.0,STARLINK-4601,PAYLOAD,2022-12-15 13:13:03,15.0884291,0.0001564,53.2169,131.9991,42.1266,317.9847,-1.6853e-05,-5.56e-06,0.0,0 STARLINK-4601,1 53617U 22104AF  22349.55073840 -.00000556  00000-0 -16853-4 0  9998,2 53617  53.2169 131.9991 0001564  42.1266 317.9847 15.08842910 17476,6917.871,95.437,540.818,538.655,0.0
53617.0,STARLINK-4601,PAYLOAD,2022-12-15 19:34:35,15.08849504,0.0001511,53.2172,130.8085,48.87600000000001,311.2363,2.6638e-05,1.36e-06,0.0,0 STARLINK-4601,1 53617U 22104AF  22349.81569144  .00000136  00000-0  26638-4 0  9998,2 53617  53.2172 130.8085 0001511  48.8760 311.2363 15.08849504 17517,6917.851,95.437,540.762,538.6709999999998,0.0
53617.0,STARLINK-4601,PAYLOAD,2022-12-15 21:09:59,15.08846433,0.0001501999999999,53.2168,130.5108,48.3053,311.8068,3.1274e-06,-2.38e-06,0.0,0 STARLINK-4601,1 53617U 22104AF  22349.88193381 -.00000238  00000-0  31274-5 0  9998,2 53617  53.2168 130.5108 0001502  48.3053 311.8068 15.08846433 16958,6917.861,95.437,540.765,538.687,0.0
53617.0,STARLINK-4601,PAYLOAD,2022-12-16 13:03:50,15.08845685,0.0001563,53.2168,127.5371,48.5108,311.6018,4.1482e-05,3.72e-06,0.0,0 STARLINK-4601,1 53617U 22104AF  22350.54433129  .00000372  00000-0  41482-4 0  9999,2 53617  53.2168 127.5371 0001563  48.5108 311.6018 15.08845685 17622,6917.863,95.437,540.809,538.6469999999998,0.0
53617.0,STARLINK-4601,PAYLOAD,2022-12-16 17:49:59,15.08841225,0.0001678,53.217,126.6451,40.4754,319.6363,-1.8312e-05,-5.8e-06,0.0,0 STARLINK-4601,1 53617U 22104AF  22350.74305551 -.00000580  00000-0 -18312-4 0  9997,2 53617  53.2170 126.6451 0001678  40.4754 319.6363 15.08841225 17086,6917.877,95.437,540.9019999999998,538.581,0.0
53617.0,STARLINK-4601,PAYLOAD,2022-12-16 19:25:23,15.08840475,0.0001686,53.2173,126.3485,40.7857,319.3261,-1.9485e-05,-5.98e-06,0.0,0 STARLINK-4601,1 53617U 22104AF  22350.80929616 -.00000598  00000-0 -19485-4 0  9999,2 53617  53.2173 126.3485 0001686  40.7857 319.3261 15.08840475 17663,6917.879,95.438,540.91,538.578,0.0
53617.0,STARLINK-4601,PAYLOAD,2022-12-17 08:08:28,15.08837696,0.0001682,53.2174,123.9694,49.7416,310.3723,-8.007399999999999e-05,-1.562e-05,0.0,0 STARLINK-4601,1 53617U 22104AF  22351.33922209 -.00001562  00000-0 -80074-4 0  9993,2 53617  53.2174 123.9694 0001682  49.7416 310.3723 15.08837696 17749,6917.887,95.438,540.9159999999998,538.589,0.0
53617.0,STARLINK-4601,PAYLOAD,2022-12-17 17:40:47,15.08840262,0.0001695,53.2182,122.1857,50.8562,309.2581,-6.0136e-05,-1.245e-05,0.0,0 STARLINK-4601,1 53617U 22104AF  22351.73666053 -.00001245  00000-0 -60136-4 0  9994,2 53617  53.2182 122.1857 0001695  50.8562 309.2581 15.08840262 17808,6917.88,95.438,540.9169999999998,538.572,0.0
53617.0,STARLINK-4601,PAYLOAD,2022-12-18 09:34:38,15.08835658,0.0001678,53.2185,119.2121,47.5275,312.5859,-1.1244e-05,-4.67e-06,0.0,0 STARLINK-4601,1 53617U 22104AF  22352.39906199 -.00000467  00000-0 -11244-4 0  9996,2 53617  53.2185 119.2121 0001678  47.5275 312.5859 15.08835658 17333,6917.894,95.438,540.919,538.5980000000002,0.0
53617.0,STARLINK-4601,PAYLOAD,2022-12-18 15:56:11,15.08840756,0.00017,53.2185,118.0227,50.7635,309.3508,-7.7326e-05,-1.519e-05,0.0,0 STARLINK-4601,1 53617U 22104AF  22352.66402196 -.00001519  00000-0 -77326-4 0  9996,2 53617  53.2185 118.0227 0001700  50.7635 309.3508 15.08840756 17946,6917.878000000002,95.438,540.919,538.567,0.0
53617.0,STARLINK-4601,PAYLOAD,2022-12-19 01:28:29,15.08838904,0.0001819,53.2185,116.2386,50.5344,309.5809,8.475799999999999e-05,1.061e-05,0.0,0 STARLINK-4601,1 53617U 22104AF  22353.06145808  .00001061  00000-0  84758-4 0  9992,2 53617  53.2185 116.2386 0001819  50.5344 309.5809 15.08838904 17430,6917.884,95.438,541.007,538.49,0.0
53617.0,STARLINK-4601,PAYLOAD,2022-12-19 17:22:21,15.08844147,0.0001836,53.2186,113.2642,47.7432,312.3716,9.0218e-05,1.148e-05,0.0,0 STARLINK-4601,1 53617U 22104AF  22353.72385441  .00001148  00000-0  90218-4 0  9998,2 53617  53.2186 113.2642 0001836  47.7432 312.3716 15.08844147 18108,6917.868,95.437,541.003,538.4630000000002,0.0
53617.0,STARLINK-4601,PAYLOAD,2022-12-19 20:33:06,15.08848857,0.0001825,53.2181,112.669,46.5837,313.5307,0.00010026,1.308e-05,0.0,0 STARLINK-4601,1 53617U 22104AF  22353.85633046  .00001308  00000-0  10026-3 0  9995,2 53617  53.2181 112.6690 0001825  46.5837 313.5307 15.08848857 17552,6917.853,95.437,540.981,538.456,0.0
53617.0,STARLINK-4601,PAYLOAD,2022-12-20 14:02:21,15.0884864,0.0001778,53.2172,109.3977,45.4271,314.6866,0.00011405,1.528e-05,0.0,0 STARLINK-4601,1 53617U 22104AF  22354.58496591  .00001528  00000-0  11405-3 0  9994,2 53617  53.2172 109.3977 0001778  45.4271 314.6866 15.08848640 18238,6917.854,95.437,540.9490000000002,538.489,0.0
53617.0,STARLINK-4601,PAYLOAD,2022-12-20 17:13:07,15.08843146,0.0001778,53.2186,108.8046,42.3801,317.7329,7.0865e-05,8.400000000000001e-06,0.0,0 STARLINK-4601,1 53617U 22104AF  22354.71745041  .00000840  00000-0  70865-4 0  9998,2 53617  53.2186 108.8046 0001778  42.3801 317.7329 15.08843146 17681,6917.871,95.437,540.966,538.506,0.0
53617.0,STARLINK-4601,PAYLOAD,2022-12-21 13:53:10,15.08828233,0.000164,53.2176,104.9374,44.6178,315.4945,-0.0001055,-1.966e-05,0.0,0 STARLINK-4601,1 53617U 22104AF  22355.57858820 -.00001966  00000-0 -10550-3 0  9999,2 53617  53.2176 104.9374 0001640  44.6178 315.4945 15.08828233 17815,6917.916,95.438,540.9159999999998,538.6469999999998,0.0
53617.0,STARLINK-4601,PAYLOAD,2022-12-21 18:39:19,15.088362,0.0001749,53.218,104.0456,43.8576,316.2555,-0.00010066,-1.89e-05,0.0,0 STARLINK-4601,1 53617U 22104AF  22355.77730396 -.00001890  00000-0 -10066-3 0  9996,2 53617  53.2180 104.0456 0001749  43.8576 316.2555 15.08836200 17847,6917.892,95.438,540.967,538.547,0.0
53617.0,STARLINK-4601,PAYLOAD,2022-12-22 18:30:05,15.08841062,0.0001852,53.2178,99.5858,41.6156,318.4977,-7.7042e-05,-1.514e-05,0.0,0 STARLINK-4601,1 53617U 22104AF  22356.77090170 -.00001514  00000-0 -77042-4 0  9997,2 53617  53.2178  99.5858 0001852  41.6156 318.4977 15.08841062 17993,6917.877,95.437,541.023,538.461,0.0
53617.0,STARLINK-4601,PAYLOAD,2022-12-23 13:34:44,15.08824432,0.0001902,53.2182,96.0175,40.7112,319.4022,2.4146e-05,9.6e-07,0.0,0 STARLINK-4601,1 53617U 22104AF  22357.56579477  .00000096  00000-0  24146-4 0  9996,2 53617  53.2182  96.0175 0001902  40.7112 319.4022 15.08824432 18119,6917.928000000001,95.439,541.109,538.477,0.0
53617.0,STARLINK-4601,PAYLOAD,2022-12-23 18:20:54,15.08819574,0.0001881,53.2185,95.1256,37.1015,323.0107,0.00010615,1.401e-05,0.0,0 STARLINK-4601,1 53617U 22104AF  22357.76451747  .00001401  00000-0  10615-3 0  9993,2 53617  53.2185  95.1256 0001881  37.1015 323.0107 15.08819574 18712,6917.943,95.439,541.109,538.507,0.0
53617.0,STARLINK-4601,PAYLOAD,2022-12-23 23:07:03,15.08831011,0.0001894,53.2187,94.2337,40.8462,319.2672,7.9153e-05,9.72e-06,0.0,0 STARLINK-4601,1 53617U 22104AF  22357.96323222  .00000972  00000-0  79153-4 0  9996,2 53617  53.2187  94.2337 0001894  40.8462 319.2672 15.08831011 18179,6917.908,95.438,541.0830000000002,538.4630000000002,0.0
